BEIDOU-3 G1             
1 43683U 18085A   26192.73915603 -.00000107  00000+0  00000+0 0  9997
2 43683   2.9269  96.7208 0008090 355.5955 263.3713  1.00272744 28305
GSAT-29                 
1 43698U 18089A   26192.64712130  .00000089  00000+0  00000+0 0  9995
2 43698   0.0554 250.3868 0002985 193.5643 133.6496  1.00274661 28035
ES'HAIL 2               
1 43700U 18090A   26192.64136420  .00000000  00000+0  00000+0 0  9996
2 43700   0.0269  40.7392 0002185 119.2299  26.2668  1.00269367 27921
GEO-KOMPSAT-2A          
1 43823U 18100A   26192.73291600 -.00000339  00000+0  00000+0 0  9992
2 43823   0.0253 118.4246 0001950 343.0760 220.2516  1.00271456 27874
GSAT-11                 
1 43824U 18100B   26192.67950279 -.00000072  00000+0  00000+0 0  9994
2 43824   0.0600 261.4492 0007660 195.7548 151.0083  1.00270886 27723
GSAT-7A                 
1 43864U 18105A   26192.68674171  .00000032  00000+0  00000+0 0  9993
2 43864   0.0755  92.0781 0001647  17.1398 130.3526  1.00270164 27693
COSMOS 2533             
1 43867U 18107A   26192.22224771 -.00000031  00000+0  00000+0 0  9995
2 43867   0.0413 120.1266 0000462 120.2573 198.7427  1.00271303 27686
TJS-3                   
1 43874U 18110A   26192.73478476 -.00000214  00000+0  00000+0 0  9999
2 43874   2.6053  80.1959 0002491  89.3252 172.8513  1.00272571 27664
ZHONGXING-2D            
1 43920U 19001A   26192.73326266 -.00000332  00000+0  00000+0 0  9991
2 43920   0.0587 242.4883 0000409  96.4701 344.6305  1.00272605 54323
HELLAS-SAT 4 & SGS-1    
1 44034U 19007A   26192.57241964  .00000158  00000+0  00000+0 0  9992
2 44034   0.0672 126.5517 0005726  21.4154  26.5970  1.00271241 27619
GSAT-31                 
1 44035U 19007B   26192.64573462  .00000000  00000+0  00000+0 0  9998
2 44035   0.0239  62.9345 0000849 170.0171 336.9518  1.00269367 27210
NUSANTARA SATU          
1 44048U 19009A   26192.18517010 -.00000228  00000+0  00000+0 0  9993
2 44048   0.0336 125.8641 0004538   1.8585  14.0358  1.00270084 27011
ZHONGXING-6C            
1 44067U 19012A   26192.73334933 -.00000330  00000+0  00000+0 0  9994
2 44067   0.0819  73.5667 0014605 339.8424 270.6865  1.00272639 26983
WGS 10 (USA 291)        
1 44071U 19014A   26192.22042770  .00000054  00000+0  00000+0 0  9992
2 44071   0.0187  42.5463 0000266 213.5559 172.6870  1.00271919 26854
TIANLIAN 2-01           
1 44076U 19017A   26192.67980036 -.00000102  00000+0  00000+0 0  9990
2 44076   0.6004  83.0658 0001427  79.3527  88.9146  1.00270873 26899
ARABSAT-6A              
1 44186U 19021A   26192.64223087  .00000159  00000+0  00000+0 0  9991
2 44186   0.0467  15.3598 0001340 258.4259 277.4898  1.00276731 26400
BEIDOU-3 IGSO-1         
1 44204U 19023A   26192.58767623 -.00000206  00000+0  00000+0 0  9990
2 44204  58.7293  37.3991 0025626 224.0790 358.6331  1.00284023  7452
BEIDOU-2 G8             
1 44231U 19027A   26192.73612269 -.00000244  00000+0  00000+0 0  9998
2 44231   1.7165  74.5082 0009785 282.6944 341.9569  1.00272882 26326
YAMAL 601               
1 44307U 19031A   26192.23169490  .00000127  00000+0  00000+0 0  9994
2 44307   0.0179  58.3043 0002288  52.7357 310.5233  1.00272780 26168
AT&T T-16               
1 44333U 19034A   26192.68756001 -.00000110  00000+0  00000+0 0  9998
2 44333   0.0139  58.1943 0000942 271.2667 106.7945  1.00268836 25876
EUTELSAT 7C             
1 44334U 19034B   26192.07752973  .00000056  00000+0  00000+0 0  9994
2 44334   0.0768 180.6935 0003303 279.2014 224.0246  1.00273692  7071
BEIDOU-3 IGSO-2         
1 44337U 19035A   26192.30343497 -.00000100  00000+0  00000+0 0  9992
2 44337  55.2507 158.6517 0039612 216.3750 142.1572  1.00258756 25907
COSMOS 2539             
1 44457U 19048A   26192.35342635  .00000088  00000+0  00000+0 0  9991
2 44457   0.0348 100.7791 0000324  62.3089 265.3995  1.00273545 25466
EDRS-C                  
1 44475U 19049A   26192.73568934 -.00000257  00000+0  00000+0 0  9995
2 44475   0.0223  88.4769 0000855  37.5874 210.9147  1.00271926 25455
INTELSAT 39 (IS-39)     
1 44476U 19049B   26192.43465111  .00000000  00000+0  00000+0 0  9991
2 44476   0.0278  39.2819 0000889 281.8876 186.5962  1.00270150 25371
AMOS-17                 
1 44479U 19050A   26192.63954419  .00000114  00000+0  00000+0 0  9998
2 44479   0.0161 356.1753 0001296 120.8747  59.7074  1.00272121 25437
AEHF-5 (USA 292)        
1 44481U 19051A   26192.70571671 -.00000251  00000+0  00000+0 0  9998
2 44481   1.4342 338.0920 0065005 357.8222 300.7745  1.00274901 25509
EUTELSAT 5 WEST B       
1 44624U 19067A   26192.63521083 -.00000037  00000+0  00000+0 0  9990
2 44624   0.0630 350.3689 0002989 122.0923  40.7485  1.00271364 24684
MEV-1                   
1 44625U 19067B   26167.92963140 -.00000149  00000+0  00000+0 0  9993
2 44625   0.8740 268.9828 0002794 179.8034 307.2103  1.00269616 61744
TJS-4                   
1 44637U 19070A   26192.72539227 -.00000165  00000+0  00000+0 0  9999
2 44637   0.0749  87.0573 0003227 320.5999 226.6438  1.00269602 24785
TIBA-1                  
1 44800U 19080A   26192.68342105  .00000161  00000+0  00000+0 0  9999
2 44800   0.0505   5.7644 0001855 119.6814  85.6606  1.00268988 24305
INMARSAT GX5            
1 44801U 19080B   26192.63841752  .00000080  00000+0  00000+0 0  9997
2 44801   0.0416  31.2250 0001968  76.5756  62.5931  1.00272350  7039
