OBJECT_NAME,OBJECT_ID,EPOCH,MEAN_MOTION,ECCENTRICITY,INCLINATION,RA_OF_ASC_NODE,ARG_OF_PERICENTER,MEAN_ANOMALY,EPHEMERIS_TYPE,CLASSIFICATION_TYPE,NORAD_CAT_ID,ELEMENT_SET_NO,REV_AT_EPOCH,BSTAR,MEAN_MOTION_DOT,MEAN_MOTION_DDOT
BEIDOU-3 G1,2018-085A,2026-07-11T17:44:23.080992,1.00272744,.00080901,2.9269,96.7208,355.5955,263.3713,0,U,43683,999,2830,0,-.107E-5,0
GSAT-29,2018-089A,2026-07-11T15:31:51.280320,1.00274661,.00029856,0.0554,250.3868,193.5643,133.6496,0,U,43698,999,2803,0,.89E-6,0
ES'HAIL 2,2018-090A,2026-07-11T15:23:33.866880,1.00269367,.00021851,0.0269,40.7392,119.2299,26.2668,0,U,43700,999,2792,0,0,0
GEO-KOMPSAT-2A,2018-100A,2026-07-11T17:35:23.942400,1.00271456,.00019504,0.0253,118.4246,343.0760,220.2516,0,U,43823,999,2787,0,-.339E-5,0
GSAT-11,2018-100B,2026-07-11T16:18:29.041056,1.00270886,.00076609,0.0600,261.4492,195.7548,151.0083,0,U,43824,999,2772,0,-.72E-6,0
GSAT-7A,2018-105A,2026-07-11T16:28:54.483744,1.00270164,.00016472,0.0755,92.0781,17.1398,130.3526,0,U,43864,999,2769,0,.32E-6,0
COSMOS 2533,2018-107A,2026-07-11T05:20:02.202144,1.00271303,.00004622,0.0413,120.1266,120.2573,198.7427,0,U,43867,999,2768,0,-.31E-6,0
TJS-3,2018-110A,2026-07-11T17:38:05.403264,1.00272571,.0002491,2.6053,80.1959,89.3252,172.8513,0,U,43874,999,2766,0,-.214E-5,0
ZHONGXING-2D,2019-001A,2026-07-11T17:35:53.893824,1.00272605,.00004094,0.0587,242.4883,96.4701,344.6305,0,U,43920,999,5432,0,-.332E-5,0
HELLAS-SAT 4 & SGS-1,2019-007A,2026-07-11T13:44:17.056896,1.00271241,.00057267,0.0672,126.5517,21.4154,26.5970,0,U,44034,999,2761,0,.158E-5,0
GSAT-31,2019-007B,2026-07-11T15:29:51.471168,1.00269367,.00008498,0.0239,62.9345,170.0171,336.9518,0,U,44035,999,2721,0,0,0
NUSANTARA SATU,2019-009A,2026-07-11T04:26:38.696640,1.00270084,.00045383,0.0336,125.8641,1.8585,14.0358,0,U,44048,999,2701,0,-.228E-5,0
ZHONGXING-6C,2019-012A,2026-07-11T17:36:01.382112,1.00272639,.00146053,0.0819,73.5667,339.8424,270.6865,0,U,44067,999,2698,0,-.33E-5,0
WGS 10 (USA 291),2019-014A,2026-07-11T05:17:24.953280,1.00271919,.00002663,0.0187,42.5463,213.5559,172.6870,0,U,44071,999,2685,0,.54E-6,0
TIANLIAN 2-01,2019-017A,2026-07-11T16:18:54.751104,1.00270873,.0001427,0.6004,83.0658,79.3527,88.9146,0,U,44076,999,2689,0,-.102E-5,0
ARABSAT-6A,2019-021A,2026-07-11T15:24:48.747168,1.00276731,.00013406,0.0467,15.3598,258.4259,277.4898,0,U,44186,999,2640,0,.159E-5,0
BEIDOU-3 IGSO-1,2019-023A,2026-07-11T14:06:15.226272,1.00284023,.00256263,58.7293,37.3991,224.0790,358.6331,0,U,44204,999,745,0,-.206E-5,0
BEIDOU-2 G8,2019-027A,2026-07-11T17:40:01.000416,1.00272882,.00097857,1.7165,74.5082,282.6944,341.9569,0,U,44231,999,2632,0,-.244E-5,0
YAMAL 601,2019-031A,2026-07-11T05:33:38.439360,1.00272780,.00022882,0.0179,58.3043,52.7357,310.5233,0,U,44307,999,2616,0,.127E-5,0
AT&T T-16,2019-034A,2026-07-11T16:30:05.184864,1.00268836,.00009423,0.0139,58.1943,271.2667,106.7945,0,U,44333,999,2587,0,-.11E-5,0
EUTELSAT 7C,2019-034B,2026-07-11T01:51:38.568672,1.00273692,.00033036,0.0768,180.6935,279.2014,224.0246,0,U,44334,999,707,0,.56E-6,0
BEIDOU-3 IGSO-2,2019-035A,2026-07-11T07:16:56.781408,1.00258756,.00396127,55.2507,158.6517,216.3750,142.1572,0,U,44337,999,2590,0,-.1E-5,0
COSMOS 2539,2019-048A,2026-07-11T08:28:56.036640,1.00273545,.00003248,0.0348,100.7791,62.3089,265.3995,0,U,44457,999,2546,0,.88E-6,0
EDRS-C,2019-049A,2026-07-11T17:39:23.558976,1.00271926,.00008552,0.0223,88.4769,37.5874,210.9147,0,U,44475,999,2545,0,-.257E-5,0
INTELSAT 39 (IS-39),2019-049B,2026-07-11T10:25:53.855904,1.00270150,.00008894,0.0278,39.2819,281.8876,186.5962,0,U,44476,999,2537,0,0,0
AMOS-17,2019-050A,2026-07-11T15:20:56.618016,1.00272121,.00012964,0.0161,356.1753,120.8747,59.7074,0,U,44479,999,2543,0,.114E-5,0
AEHF-5 (USA 292),2019-051A,2026-07-11T16:56:13.923744,1.00274901,.0065005,1.4342,338.0920,357.8222,300.7745,0,U,44481,999,2550,0,-.251E-5,0
EUTELSAT 5 WEST B,2019-067A,2026-07-11T15:14:42.215712,1.00271364,.00029897,0.0630,350.3689,122.0923,40.7485,0,U,44624,999,2468,0,-.37E-6,0
MEV-1,2019-067B,2026-06-16T22:18:40.152960,1.00269616,.00027946,0.8740,268.9828,179.8034,307.2103,0,U,44625,999,6174,0,-.149E-5,0
TJS-4,2019-070A,2026-07-11T17:24:33.892128,1.00269602,.0003227,0.0749,87.0573,320.5999,226.6438,0,U,44637,999,2478,0,-.165E-5,0
TIBA-1,2019-080A,2026-07-11T16:24:07.578720,1.00268988,.00018552,0.0505,5.7644,119.6814,85.6606,0,U,44800,999,2430,0,.161E-5,0
INMARSAT GX5,2019-080B,2026-07-11T15:19:19.273728,1.00272350,.00019682,0.0416,31.2250,76.5756,62.5931,0,U,44801,999,703,0,.8E-6,0
